SAR-LUPE 2              
1 31797U 07030A   26177.96074383  .00018848  00000+0  31940-3 0  9998
2 31797  98.1046 283.6146 0002490 181.7242 178.4000 15.51593951 58453
SAPPHIRE                
1 39088U 13009C   26177.85223048  .00000100  00000+0  50011-4 0  9997
2 39088  98.4264 357.0785 0010457 215.1620 144.8877 14.35243053697968
PRAETORIAN SDA_602      
1 65565U 25203A   26176.91435568  .00000104  00000+0  82306-4 0  9999
2 65565  81.3029   2.6841 0006264 162.2891 197.8485 13.84278827 39903
PRAETORIAN SDA_603      
1 65566U 25203B   26177.95559104  .00000150  00000+0  12425-3 0  9993
2 65566  81.3041   1.6419 0009844 161.3786 198.7733 13.83906532 40052
PRAETORIAN SDA_604      
1 65567U 25203C   26177.90901437  .00000086  00000+0  67595-4 0  9996
2 65567  81.3052   2.1125 0005809 165.1640 194.9688 13.83048499 40026
PRAETORIAN SDA_605      
1 65568U 25203D   26177.94395795  .00000054  00000+0  38669-4 0  9990
2 65568  81.3018   1.7338 0008625 157.1521 203.0021 13.83434935 40047
PRAETORIAN SDA_606      
1 65569U 25203E   26177.92819438  .00000044  00000+0  29669-4 0  9993
2 65569  81.3052   1.9774 0006484 159.7528 200.3887 13.83198571 40030
PRAETORIAN SDA_607      
1 65570U 25203F   26177.92856079  .00000213  00000+0  17992-3 0  9990
2 65570  81.3040   1.6221 0009226 161.3287 198.8210 13.84285837 40057
PRAETORIAN SDA_608      
1 65571U 25203G   26177.90924679  .00000051  00000+0  34979-4 0  9996
2 65571  81.3005   1.8056 0006320 164.4502 195.6850 13.83817387 40036
PRAETORIAN SDA_609      
1 65572U 25203H   26177.91140046  .00000189  00000+0  15876-3 0  9992
2 65572  81.3048   1.7851 0007229 159.2791 200.8660 13.84210132 40042
PRAETORIAN SDA_610      
1 65573U 25203J   26177.96163143  .00000082  00000+0  63418-4 0  9999
2 65573  81.3006   1.7159 0007089 163.8634 196.2750 13.83768461 40049
PRAETORIAN SDA_611      
1 65574U 25203K   26177.96567083  .00000058  00000+0  41799-4 0  9992
2 65574  81.3007   1.8853 0005862 167.6118 192.5183 13.83309925 40033
PRAETORIAN SDA_612      
1 65575U 25203L   26177.79860335  .00000164  00000+0  13482-3 0  9995
2 65575  81.3029   1.6023 0009629 161.1403 199.0113 13.85039752 40042
PRAETORIAN SDA_613      
1 65576U 25203M   26177.90390202  .00000072  00000+0  55036-4 0  9990
2 65576  81.2999   1.9465 0006098 158.1256 202.0162 13.82765943 40022
PRAETORIAN SDA_614      
1 65577U 25203N   26177.93410015  .00000061  00000+0  43926-4 0  9992
2 65577  81.3013   1.5566 0007558 157.7018 202.4469 13.84778022 40064
PRAETORIAN SDA_615      
1 65578U 25203P   26177.91338925  .00000124  00000+0  10027-3 0  9995
2 65578  81.3024   1.5456 0009475 159.0878 201.0668 13.84437065 40058
PRAETORIAN SDA_616      
1 65579U 25203Q   26177.96517664  .00000231  00000+0  19961-3 0  9995
2 65579  81.3063   2.0369 0005801 165.9908 194.1410 13.83268503 40033
PRAETORIAN SDA_617      
1 65580U 25203R   26177.91527688  .00000051  00000+0  35679-4 0  9994
2 65580  81.3035   1.9134 0007815 158.1841 201.9649 13.83150500 40037
PRAETORIAN SDA_618      
1 65581U 25203S   26177.44424983  .00000028  00000+0  14181-4 0  9996
2 65581  81.3021   1.9070 0010122 162.7241 197.4262 13.84669977 39999
PRAETORIAN SDA_619      
1 65582U 25203T   26177.91979370  .00000213  00000+0  18115-3 0  9990
2 65582  81.3046   1.7783 0008600 159.3937 200.7568 13.83806288 40679
PRAETORIAN SDA_620      
1 65583U 25203U   26177.94910041  .00000187  00000+0  15878-3 0  9997
2 65583  81.3030   1.7736 0008055 155.2291 204.9254 13.83619110 40048
PRAETORIAN SDA_621      
1 65584U 25203V   26177.92159626  .00000075  00000+0  57396-4 0  9998
2 65584  81.3021   1.7132 0007880 153.0714 207.0853 13.83802161 40049
PRAETORIAN SDA_601      
1 65585U 25203W   26177.96901964  .00000201  00000+0  17313-3 0  9998
2 65585  81.3037   1.9773 0005777 168.6952 191.4335 13.83168764 40033
VICTUS HAZE PUMA        
1 69646U 26142A   26177.95387131  .00004315  00000+0  19828-3 0  9999
2 69646  97.4482  75.4667 0021068 292.5030  67.3975 15.20720947  1151
